K04K00Z 25.5   0.15 K14C9 118.94898  100.99041   58.41891   12.39343  0.3741450  0.67401604   1.2883165  8 MPO 66381    26   1    2 days 0.59 M-v 3Eh MPCS       2803          2004 KZ            20040520
K04K01F 20.8   0.15 K14C9 146.52878    5.21880  242.04461    9.41053  0.4429388  0.31988594   2.1174148  1 MPO117483   101   2 2004-2007 0.56 M-v 38h MPCS       0804          2004 KF1           20070310
K04K01G 24.1   0.15 K14C9  89.55062  213.43336  243.24478    1.91195  0.4074252  1.30280725   0.8302635  7 MPO 66381   100   1   10 days 0.76 M-v 3Eh MPCADO     2802          2004 KG1           20040529
K04K10N 23.6   0.15 K14C9 231.70733   20.59514  234.79491    7.63845  0.4543037  0.34200368   2.0251111  6 MPO 66382    45   1   24 days 0.54 M-v 38h MPCW       2804          2004 KN10          20040614
K04K14Z 20.7   0.15 K14C9 248.46615  310.55678  200.29365    7.88902  0.3129421  0.51717848   1.5371247  6 MPO 66383    34   1   31 days 0.40 M-v 3Eh MPCW       2804          2004 KZ14          20040623
K04K15F 20.8   0.15 K14C9  84.94698   34.60071  229.14352   11.07630  0.3548238  0.39821972   1.8297322  1 MPO159433   108   2 2004-2009 0.50 M-v 38h MPCW       0804          2004 KF15          20090801
K04K15H 19.7   0.15 K14C9 253.64654  350.08506   78.11512   35.07010  0.1700676  1.04613224   0.9610478  3 MPO 97710    38   2 2004-2005 0.55 M-v 3Eh MPCALB     0802          2004 KH15          20051024
K04K17E 21.5   0.15 K14C9 101.05639  175.36011   68.86625   26.94312  0.6208258  0.21396231   2.7685000  5 MPO 66383    61   1   10 days 0.52 M-v 3Eh MPCADO     A804          2004 KE17          20040607
K04K17F 26.1   0.15 K14C9  55.76327  212.57344   69.96368   13.21860  0.4773855  0.39186672   1.8494551  5 MPO 66383    41   1    3 days 0.76 M-v 3Eh MPCADO     2803          2004 KF17          20040531
K04K17G 27.1   0.15 K14C9 240.49149  149.18841  102.13131    0.48873  0.3213519  0.53090112   1.5105217  7 MPO 66383    13   1    6 days 0.85 M-v 3Eh MPCS       2804          2004 KG17          20040603
K04K17H 21.9   0.15 K14C9  31.35535  340.68904   79.17383   22.11390  0.4985272  1.64037126   0.7120458  4 MPO264936   175   4 2004-2013 0.59 M-v 3Eh MPCALB     8C02          2004 KH17          20130605
K04L00B 21.8   0.15 K14C9 130.09949  145.04860  254.03848   37.28797  0.0532306  0.91517949   1.0506673  2 MPO 74310   112   1  186 days 0.55 M-v 3Eh MPCS       A803          2004 LB            20041209
K04L00C 24.4   0.15 K14C9 173.66349  330.82626  244.94551    5.27808  0.5530464  0.32417728   2.0986870  7 MPO 66383    79   1    7 days 0.57 M-v 3Eh MPCS       2803          2004 LC            20040615
K04L00G 18.0   0.15 K14C9 168.97583  164.67826  256.88479   70.96548  0.8971363  0.33192917   2.0658832  3 MPO264936   112   4 2004-2013 0.43 M-v 3Eh MPCALB     1803          2004 LG            20130602
K04L00H 18.8   0.15 K14C9 187.75545  341.42222  248.70114   39.54710  0.3270078  0.42050869   1.7644908  1 MPO208200   258   3 2004-2011 0.40 M-v 38h MPCADO     0804          2004 LH            20110716
K04L00K 22.7   0.15 K14C9 155.50829  229.98156   76.01808    7.80490  0.5120836  0.32559283   2.0925997  0 MPO120330    67   2 2004-2007 0.52 M-v 3Eh MPCS       0804          2004 LK            20070524
K04L00V 24.1   0.15 K14C9 277.75274  132.75504  217.24453    2.33722  0.6258698  0.45442469   1.6755656  6 MPO 66384    21   1    3 days 0.63 M-v 3Eh MPCADO     2803          2004 LV            20040612
K04L01B 23.2   0.15 K14C9 120.57315  125.78864   82.93231   22.95560  0.2456545  0.68041380   1.2802280  5 MPO 66384    40   1    9 days 0.61 M-v 3Eh MPCW       2803          2004 LB1           20040619
K04L02B 22.3   0.15 K14C9 260.94670  106.47643  261.40976    6.86657  0.5702175  0.64154016   1.3314356  8 MPO 66384    54   1    4 days 0.80 M-v 3Eh MPCS       2803          2004 LB2           20040615
K04L02C 18.5   0.15 K14C9  20.60234  290.42694   84.54816   10.96950  0.7342709  0.38690548   1.8652317  2 MPO300583   140   4 2004-2014 0.38 M-v 3Eh MPCALB     8C03          2004 LC2           20140629
K04L02D 21.2   0.15 K14C9  62.85553   42.13725  237.52735   10.96516  0.5579276  0.20551759   2.8438283  5 MPO 66384    57   1   32 days 0.50 M-v 38h MPCADO     2804          2004 LD2           20040713
K04L02O 25.0   0.15 K14C9 258.37844  309.41963   82.63896   25.49104  0.3514976  1.12514827   0.9155095  7 MPO 66384    31   1    4 days 0.66 M-v 3Eh MPCADO     2802          2004 LO2           20040615
K04L03U 18.4   0.15 K14C9  77.48690  224.17725  113.95509    9.84853  0.5310500  0.30716920   2.1754592  0 MPO120791   196   2 2004-2007 0.46 M-v 3Eh MPCALB     0804          2004 LU3           20070510
K04L03V 18.8   0.15 K14C9 160.49299  121.31750  273.50612   35.34052  0.2757565  0.72133574   1.2313393  0 MPO264936   237   3 2004-2013 0.53 M-v 3Eh MPCW       8803          2004 LV3           20130105
K04L05X 25.6   0.15 K14C9  18.20293  172.93390   83.26850   13.59105  0.2118675  0.66184455   1.3040634  8 MPO 66385    18   1    1 days 1.12 M-v 3Eh MPCS       2804          2004 LX5           20040613
K04L05Y 21.5   0.15 K14C9  68.08632  295.34647   87.12436   16.00604  0.7777329  0.39896988   1.8274380  7 MPO 66385    37   1    3 days 0.59 M-v 3Eh MPCW       A803          2004 LY5           20040615
K04L05Z 18.2   0.15 K14C9 194.71841  320.03819  263.01213   24.75965  0.5488979  0.23495711   2.6010198  2 MPO129704    82   2 2004-2007 0.58 M-v 38h MPCS       1804          2004 LZ5           20071205
K04L06A 21.8   0.15 K14C9 246.88797   74.78995  244.57408   18.31226  0.3557571  0.44775649   1.6921601  6 MPO 66385    43   1   41 days 0.58 M-v 3Eh MPCADO     2804          2004 LA6           20040724
K04L10A 25.1   0.15 K14C9 230.33940  141.76452  139.09734    1.07565  0.5772333  0.24783027   2.5101508  5 MPO 66385    52   1   14 days 0.65 M-v 3Eh MPCADO     2804          2004 LA10          20040628
K04M00C 23.3   0.15 K14C9 259.31014  203.93469   91.28273    2.41965  0.5919541  0.25857849   2.4401009  5 MPO 66387   131   1   15 days 0.45 M-v 3Eh MPCADO     2803          2004 MC            20040630
K04M00D 20.1   0.15 K14C9 357.66970  124.09124   85.54169    9.76404  0.5376379  0.37158737   1.9161467  1 MPO235377   157   4 2004-2012 0.38 M-v 3Eh MPCADO     8803          2004 MD            20120728
K04M01N 24.6   0.15 K14C9  78.47116  249.67690   84.54342   29.79524  0.3992351  0.59350851   1.4023339  8 MPO 66388     7   1    1 days 0.67 M-v 3Eh MPCK       2803          2004 MN1           20040617
K04M01O 23.2   0.15 K14C9 303.90905  206.13691   83.49656   57.83580  0.5618752  0.26962925   2.3729653  9 MPO 66388    22   1    2 days 1.12 M-v 3Eh MPCS       2804          2004 MO1           20040619
K04M01P 25.2   0.15 K14C9 162.43355  326.93278  266.61519    8.65103  0.4374619  0.41579814   1.7777923  7 MPO 66388    34   1    7 days 0.53 M-v 3Eh MPCADO     2804          2004 MP1           20040624
K04M01Q 18.0   0.15 K14C9 267.44767  331.05257   57.62292   10.97006  0.7067349  0.26432571   2.4046015  1 MPO154128    65   3 2004-2009 0.37 M-v 3Eh MPCADO     1803          2004 MQ1           20090227
K04M01R 25.6   0.15 K14C9 187.82710  220.91142   88.12151    1.78713  0.3732142  0.52442917   1.5229237  7 MPO 66388    38   1    1 days 0.61 M-v 3Eh MPCK       2803          2004 MR1           20040619
K04M01S 22.3   0.15 K14C9  27.52540  324.48737  263.18880    6.97140  0.5862467  0.28637368   2.2795405  6 MPO 66388    87   1   21 days 0.47 M-v 3Eh MPCADO     2803          2004 MS1           20040709
K04M02V 23.5   0.15 K14C9  79.53595  106.02776  103.38243    6.70997  0.4857180  0.39215930   1.8485351  7 MPO 66388    22   1    4 days 0.74 M-v 3Eh MPCS       2803          2004 MV2           20040623
K04M02W 19.2   0.15 K14C9 244.96253   50.14483   96.15892   35.11131  0.6382064  0.80425607   1.1451784  3 MPO158836    87   2 2004-2009 0.43 M-v 3Eh MPCK       0803          2004 MW2           20090624
K04M02X 19.3   0.15 K14C9  82.83878  241.90517  118.02057   18.30884  0.7128231  0.21294009   2.7773531  1 MPO285665    95   4 2004-2014 0.43 M-v 3Eh MPCALB     8C03          2004 MX2           20140130
K04M03O 22.3   0.15 K14C9 276.52209  297.82361  252.67409    2.55530  0.3364610  0.71978613   1.2331060  5 MPO 66388   120   1   22 days 0.55 M-v 3Eh MPCADO     2803          2004 MO3           20040713
K04M03P 18.4   0.15 K14C9 173.19594  158.35565  147.05804   15.81367  0.5168564  0.23377190   2.6098037  1 MPO221037   120   3 2000-2008 0.57 M-v 38h MPCALB     0804          2004 MP3           20080311
K04M04O 24.9   0.15 K14C9 250.64397  188.46208  106.41722    2.21959  0.3882816  0.44503840   1.6990431  5 MPO 66388    79   1   32 days 0.61 M-v 3Eh MPCADO     2804          2004 MO4           20040724
K04M06B 19.5   0.15 K14C9 168.49446  229.74258  134.19236   11.12942  0.7064878  0.23929036   2.5695235  0 MPO147295    58   3 2004-2008 0.43 M-v 3Eh MPCALB     0803          2004 MB6           20081022
K04M06D 20.5   0.15 K14C9 180.18457  231.40982  263.88745   29.32851  0.5629174  1.06313216   0.9507753  4 MPO124443   136   3 2004-2007 0.53 M-v 3Eh MPCALB     8802          2004 MD6           20070914
K04M06Q 19.7   0.15 K14C9  51.43958  256.29066  105.90569   35.52812  0.6489274  0.39640499   1.8353123  3 MPO295691   128   2 2004-2014 0.56 M-v 3Eh MPCW       0803          2004 MQ6           20140601
K04M07P 21.7   0.15 K14C9 121.17499  112.01242   95.37786   17.63159  0.7196502  0.21930503   2.7233512  6 MPO 70367    62   1   26 days 0.51 M-v 3Eh MPCALB     A803          2004 MP7           20040722
K04N03F 24.5   0.15 K14C9 172.46884   22.88338  269.96209    0.78806  0.4814998  0.32991296   2.0742916  6 MPO 70368    38   1   11 days 0.66 M-v 3Eh MPCALB     2804          2004 NF3           20040722
K04N07U 24.4   0.15 K14C9  49.14053  137.95410  133.45537    0.89575  0.5445408  0.29535118   2.2331106  8 MPO 70368    22   1    7 days 0.87 M-v 3Eh MPCALB     2804          2004 NU7           20040721
